STARLETTE               
1 07646U 75010A   16032.86359081 -.00000131  00000-0  10305-4 0  9997
2 07646  49.8252 297.0334 0205615 148.7946 212.5344 13.82299432 70507
LAGEOS 1                
1 08820U 76039A   16031.93871588 -.00000006  00000-0  00000+0 0  9999
2 08820 109.8604 321.3330 0044093  32.9659  99.3428  6.38664966671561
AJISAI (EGS)            
1 16908U 86061A   16032.90172383 -.00000085  00000-0  84650-4 0  9991
2 16908  50.0092 275.9206 0011198 258.5587 101.0748 12.44482793  9018
LAGEOS 2                
1 22195U 92070B   16032.52031267 -.00000009  00000-0  00000+0 0  9994
2 22195  52.6493 141.1236 0137806 330.5808 331.6610  6.47294086550354
STELLA                  
1 22824U 93061B   16033.22097252 -.00000010  00000-0  14338-4 0  9994
2 22824  98.7501 341.7947 0007435  67.9795  44.5229 14.27360850164549
GRACE-1                 
1 27391U 02012A   16033.24104435  .00013270  00000-0  12974-3 0  9992
2 27391  88.9938  33.3335 0003348 303.5860 123.3009 15.66012110778735
GRACE-2                 
1 27392U 02012B   16032.58974816  .00015644  00000-0  15308-3 0  9998
2 27392  88.9947  33.4968 0003478 308.1183  51.9774 15.65997680778628
LARES                   
1 38077U 12006A   16033.35966770 -.00000022  00000-0  10000-3 0  9999
2 38077  69.4919 282.1994 0007945   2.6749 357.4319 12.54930669181932
